[
    {
        "Altitude(m)": 622205.9048735994,
        "Argument of Periapsis(deg)": 0.0,
        "Eccentricity": 0.0,
        "Inclination(deg)": 60.0,
        "Latitude(deg)": -52.16253859161508,
        "Longitude(deg)": -87.29959834653691,
        "Mean Anomaly(deg)": -114.54550000000005,
        "RAAN(deg)": 145.0,
        "Satellite Name": "Test1 653",
        "Satellite Number": 653,
        "Semi-Major Axis(m)": 6980739.136638005,
        "Time(s)": 0
    },
    {
        "Altitude(m)": 622344.8112624976,
        "Argument of Periapsis(deg)": 0.00010418945913296404,
        "Eccentricity": 0.0,
        "Inclination(deg)": 60.0,
        "Latitude(deg)": -52.52011809221671,
        "Longitude(deg)": -86.51838406196934,
        "Mean Anomaly(deg)": -113.92539385453819,
        "RAAN(deg)": 144.99957995086027,
        "Satellite Name": "Test1 653",
        "Satellite Number": 653,
        "Semi-Major Axis(m)": 6980739.136638005,
        "Time(s)": 10
    },
    {
        "Altitude(m)": 622480.8739882197,
        "Argument of Periapsis(deg)": 0.0002083789182659281,
        "Eccentricity": 0.0,
        "Inclination(deg)": 60.0,
        "Latitude(deg)": -52.87186096147016,
        "Longitude(deg)": -85.7238375518812,
        "Mean Anomaly(deg)": -113.30528770907637,
        "RAAN(deg)": 144.99915990172053,
        "Satellite Name": "Test1 653",
        "Satellite Number": 653,
        "Semi-Major Axis(m)": 6980739.136638005,
        "Time(s)": 20
    },
    {
        "Altitude(m)": 622614.0398195067,
        "Argument of Periapsis(deg)": 0.00031256837739889213,
        "Eccentricity": 0.0,
        "Inclination(deg)": 60.0,
        "Latitude(deg)": -53.21759933719089,
        "Longitude(deg)": -84.91579784709836,
        "Mean Anomaly(deg)": -112.68518156361452,
        "RAAN(deg)": 144.99873985258077,
        "Satellite Name": "Test1 653",
        "Satellite Number": 653,
        "Semi-Major Axis(m)": 6980739.136638005,
        "Time(s)": 30
    },
    {
        "Altitude(m)": 622744.2566353404,
        "Argument of Periapsis(deg)": 0.0004167578365318562,
        "Eccentricity": 0.0,
        "Inclination(deg)": 60.0,
        "Latitude(deg)": -53.557161950271,
        "Longitude(deg)": -84.09411560186632,
        "Mean Anomaly(deg)": -112.06507541815269,
        "RAAN(deg)": 144.99831980344103,
        "Satellite Name": "Test1 653",
        "Satellite Number": 653,
        "Semi-Major Axis(m)": 6980739.136638005,
        "Time(s)": 40
    },
    {
        "Altitude(m)": 622871.4734471746,
        "Argument of Periapsis(deg)": 0.0005209472956648203,
        "Eccentricity": 0.0,
        "Inclination(deg)": 60.0,
        "Latitude(deg)": -53.890374247441464,
        "Longitude(deg)": -83.2586554903781,
        "Mean Anomaly(deg)": -111.44496927269083,
        "RAAN(deg)": 144.9978997543013,
        "Satellite Name": "Test1 653",
        "Satellite Number": 653,
        "Semi-Major Axis(m)": 6980739.136638005,
        "Time(s)": 50
    },
    {
        "Altitude(m)": 622995.6404206968,
        "Argument of Periapsis(deg)": 0.0006251367547977843,
        "Eccentricity": 0.0,
        "Inclination(deg)": 60.0,
        "Latitude(deg)": -54.21705853802054,
        "Longitude(deg)": -82.40929715403239,
        "Mean Anomaly(deg)": -110.82486312722907,
        "RAAN(deg)": 144.99747970516157,
        "Satellite Name": "Test1 653",
        "Satellite Number": 653,
        "Semi-Major Axis(m)": 6980739.136638005,
        "Time(s)": 60
    },
    {
        "Altitude(m)": 623116.7088970469,
        "Argument of Periapsis(deg)": 0.0007293262139307483,
        "Eccentricity": 0.0,
        "Inclination(deg)": 60.0,
        "Latitude(deg)": -54.53703416626411,
        "Longitude(deg)": -81.54593620793604,
        "Mean Anomaly(deg)": -110.20475698176719,
        "RAAN(deg)": 144.9970596560218,
        "Satellite Name": "Test1 653",
        "Satellite Number": 653,
        "Semi-Major Axis(m)": 6980739.136638005,
        "Time(s)": 70
    },
    {
        "Altitude(m)": 623234.6314135477,
        "Argument of Periapsis(deg)": 0.0008335156730637124,
        "Eccentricity": 0.0,
        "Inclination(deg)": 60.0,
        "Latitude(deg)": -54.85011771089051,
        "Longitude(deg)": -80.66848681388402,
        "Mean Anomaly(deg)": -109.58465083630543,
        "RAAN(deg)": 144.99663960688207,
        "Satellite Name": "Test1 653",
        "Satellite Number": 653,
        "Semi-Major Axis(m)": 6980739.136638005,
        "Time(s)": 80
    },
    {
        "Altitude(m)": 623349.3617239054,
        "Argument of Periapsis(deg)": 0.0009377051321966765,
        "Eccentricity": 0.0,
        "Inclination(deg)": 60.0,
        "Latitude(deg)": -55.15612321328737,
        "Longitude(deg)": -79.77688278701008,
        "Mean Anomaly(deg)": -108.96454469084357,
        "RAAN(deg)": 144.99621955774234,
        "Satellite Name": "Test1 653",
        "Satellite Number": 653,
        "Semi-Major Axis(m)": 6980739.136638005,
        "Time(s)": 90
    },
    {
        "Altitude(m)": 623460.8548178659,
        "Argument of Periapsis(deg)": 0.0010418945913296407,
        "Eccentricity": 0.0,
        "Inclination(deg)": 60.0,
        "Latitude(deg)": -55.45486243580489,
        "Longitude(deg)": -78.87107874043213,
        "Mean Anomaly(deg)": -108.3444385453817,
        "RAAN(deg)": 144.9957995086026,
        "Satellite Name": "Test1 653",
        "Satellite Number": 653,
        "Semi-Major Axis(m)": 6980739.136638005,
        "Time(s)": 100
    },
    {
        "Altitude(m)": 623569.0669403732,
        "Argument of Periapsis(deg)": 0.0011460840504626045,
        "Eccentricity": 0.0,
        "Inclination(deg)": 60.0,
        "Latitude(deg)": -55.746145151411724,
        "Longitude(deg)": -77.95105277061107,
        "Mean Anomaly(deg)": -107.7243323999199,
        "RAAN(deg)": 144.99537945946284,
        "Satellite Name": "Test1 653",
        "Satellite Number": 653,
        "Semi-Major Axis(m)": 6980739.136638005,
        "Time(s)": 110
    },
    {
        "Altitude(m)": 623673.955610112,
        "Argument of Periapsis(deg)": 0.0012502735095955685,
        "Eccentricity": 0.0,
        "Inclination(deg)": 60.0,
        "Latitude(deg)": -56.02977946581708,
        "Longitude(deg)": -77.01680764583894,
        "Mean Anomaly(deg)": -107.10422625445807,
        "RAAN(deg)": 144.9949594103231,
        "Satellite Name": "Test1 653",
        "Satellite Number": 653,
        "Semi-Major Axis(m)": 6980739.136638005,
        "Time(s)": 120
    },
    {
        "Altitude(m)": 623775.4796375907,
        "Argument of Periapsis(deg)": 0.0013544629687285324,
        "Eccentricity": 0.0,
        "Inclination(deg)": 60.0,
        "Latitude(deg)": -56.305572172954534,
        "Longitude(deg)": -76.06837199717756,
        "Mean Anomaly(deg)": -106.48412010899621,
        "RAAN(deg)": 144.99453936118337,
        "Satellite Name": "Test1 653",
        "Satellite Number": 653,
        "Semi-Major Axis(m)": 6980739.136638005,
        "Time(s)": 130
    },
    {
        "Altitude(m)": 623873.5991425761,
        "Argument of Periapsis(deg)": 0.0014586524278614966,
        "Eccentricity": 0.0,
        "Inclination(deg)": 60.0,
        "Latitude(deg)": -56.573329144473455,
        "Longitude(deg)": -75.10580300941989,
        "Mean Anomaly(deg)": -105.86401396353438,
        "RAAN(deg)": 144.99411931204364,
        "Satellite Name": "Test1 653",
        "Satellite Number": 653,
        "Semi-Major Axis(m)": 6980739.136638005,
        "Time(s)": 140
    },
    {
        "Altitude(m)": 623968.2755710323,
        "Argument of Periapsis(deg)": 0.0015628418869944607,
        "Eccentricity": 0.0,
        "Inclination(deg)": 60.0,
        "Latitude(deg)": -56.83285575358772,
        "Longitude(deg)": -74.1291875692827,
        "Mean Anomaly(deg)": -105.24390781807257,
        "RAAN(deg)": 144.99369926290387,
        "Satellite Name": "Test1 653",
        "Satellite Number": 653,
        "Semi-Major Axis(m)": 6980739.136638005,
        "Time(s)": 150
    },
    {
        "Altitude(m)": 624059.4717114469,
        "Argument of Periapsis(deg)": 0.0016670313461274247,
        "Eccentricity": 0.0,
        "Inclination(deg)": 60.0,
        "Latitude(deg)": -57.08395733329465,
        "Longitude(deg)": -73.1386433649912,
        "Mean Anomaly(deg)": -104.62380167261071,
        "RAAN(deg)": 144.99327921376414,
        "Satellite Name": "Test1 653",
        "Satellite Number": 653,
        "Semi-Major Axis(m)": 6980739.136638005,
        "Time(s)": 160
    },
    {
        "Altitude(m)": 624147.1517105922,
        "Argument of Periapsis(deg)": 0.0017712208052603888,
        "Eccentricity": 0.0,
        "Inclination(deg)": 60.0,
        "Latitude(deg)": -57.32643966859402,
        "Longitude(deg)": -72.13432142984212,
        "Mean Anomaly(deg)": -104.00369552714895,
        "RAAN(deg)": 144.9928591646244,
        "Satellite Name": "Test1 653",
        "Satellite Number": 653,
        "Semi-Major Axis(m)": 6980739.136638005,
        "Time(s)": 170
    },
    {
        "Altitude(m)": 624231.2810887091,
        "Argument of Periapsis(deg)": 0.001875410264393353,
        "Eccentricity": 0.0,
        "Inclination(deg)": 60.0,
        "Latitude(deg)": -57.560109521912196,
        "Longitude(deg)": -71.11640708227674,
        "Mean Anomaly(deg)": -103.38358938168707,
        "RAAN(deg)": 144.99243911548467,
        "Satellite Name": "Test1 653",
        "Satellite Number": 653,
        "Semi-Major Axis(m)": 6980739.136638005,
        "Time(s)": 180
    },
    {
        "Altitude(m)": 624311.8267540977,
        "Argument of Periapsis(deg)": 0.0019795997235263173,
        "Eccentricity": 0.0,
        "Inclination(deg)": 60.0,
        "Latitude(deg)": -57.78477519047026,
        "Longitude(deg)": -70.08512075242638,
        "Mean Anomaly(deg)": -102.76348323622527,
        "RAAN(deg)": 144.99201906634488,
        "Satellite Name": "Test1 653",
        "Satellite Number": 653,
        "Semi-Major Axis(m)": 6980739.136638005,
        "Time(s)": 190
    }
]